{
  "type": "FeatureCollection",
  "features": [
    {
      "type": "Feature",
      "properties": {
        "norad_id": 41830,
        "name": "FENGYUN 1C DEB",
        "group": "fengyun-1c-debris",
        "lat": 45.48151080954844,
        "lon": -110.60553667332196,
        "alt_km": 791.3308584163779,
        "timestamp": "2025-12-14T09:36:23.327307+00:00",
        "meta_object_name": "FENGYUN 1C DEB",
        "meta_object_id": "1999-025EYH",
        "meta_epoch": "2025-12-13T04:21:30.984768",
        "meta_mean_motion": 14.26456086,
        "meta_eccentricity": 0.00547252,
        "meta_inclination": 98.7524,
        "meta_ra_of_asc_node": 59.163,
        "meta_arg_of_pericenter": 215.4795,
        "meta_mean_anomaly": 144.2741,
        "meta_ephemeris_type": 0,
        "meta_classification_type": "U",
        "meta_norad_cat_id": 41830,
        "meta_element_set_no": 999,
        "meta_rev_at_epoch": 47280,
        "meta_bstar": 0.0025350367,
        "meta_mean_motion_dot": 6.16e-05,
        "meta_mean_motion_ddot": 0,
        "tle_line1": "1 41830U 99025EYH 25347.18160862  .00006160  00000+0  25350-2 0  9993",
        "tle_line2": "2 41830  98.7524  59.1630 0054725 215.4795 144.2741 14.26456086472809"
      },
      "geometry": {
        "type": "Point",
        "coordinates": [
          -110.60553667332196,
          45.48151080954844
        ]
      }
    },
    {
      "type": "Feature",
      "properties": {
        "norad_id": 41831,
        "name": "FENGYUN 1C DEB",
        "group": "fengyun-1c-debris",
        "lat": -49.41024507052682,
        "lon": 65.58424189056899,
        "alt_km": 818.9099693760418,
        "timestamp": "2025-12-14T09:36:23.327317+00:00",
        "meta_object_name": "FENGYUN 1C DEB",
        "meta_object_id": "1999-025EYJ",
        "meta_epoch": "2025-12-13T03:30:03.164544",
        "meta_mean_motion": 14.2457204,
        "meta_eccentricity": 0.00562733,
        "meta_inclination": 98.7348,
        "meta_ra_of_asc_node": 53.9999,
        "meta_arg_of_pericenter": 220.0946,
        "meta_mean_anomaly": 139.6074,
        "meta_ephemeris_type": 0,
        "meta_classification_type": "U",
        "meta_norad_cat_id": 41831,
        "meta_element_set_no": 999,
        "meta_rev_at_epoch": 47265,
        "meta_bstar": 0.0023644986,
        "meta_mean_motion_dot": 5.539e-05,
        "meta_mean_motion_ddot": 0,
        "tle_line1": "1 41831U 99025EYJ 25347.14586996  .00005539  00000+0  23645-2 0  9994",
        "tle_line2": "2 41831  98.7348  53.9999 0056273 220.0946 139.6074 14.24572040472651"
      },
      "geometry": {
        "type": "Point",
        "coordinates": [
          65.58424189056899,
          -49.41024507052682
        ]
      }
    },
    {
      "type": "Feature",
      "properties": {
        "norad_id": 41832,
        "name": "FENGYUN 1C DEB",
        "group": "fengyun-1c-debris",
        "lat": 2.195321570621818,
        "lon": 52.073934666672855,
        "alt_km": 844.8657056056563,
        "timestamp": "2025-12-14T09:36:23.327327+00:00",
        "meta_object_name": "FENGYUN 1C DEB",
        "meta_object_id": "1999-025EYK",
        "meta_epoch": "2025-12-13T15:02:57.620256",
        "meta_mean_motion": 14.2424571,
        "meta_eccentricity": 0.00556067,
        "meta_inclination": 98.7283,
        "meta_ra_of_asc_node": 51.6435,
        "meta_arg_of_pericenter": 223.0107,
        "meta_mean_anomaly": 136.6719,
        "meta_ephemeris_type": 0,
        "meta_classification_type": "U",
        "meta_norad_cat_id": 41832,
        "meta_element_set_no": 999,
        "meta_rev_at_epoch": 47363,
        "meta_bstar": 0.0021019365,
        "meta_mean_motion_dot": 4.885e-05,
        "meta_mean_motion_ddot": 0,
        "tle_line1": "1 41832U 99025EYK 25347.62705579  .00004885  00000+0  21019-2 0  9994",
        "tle_line2": "2 41832  98.7283  51.6435 0055606 223.0107 136.6719 14.24245710473634"
      },
      "geometry": {
        "type": "Point",
        "coordinates": [
          52.073934666672855,
          2.195321570621818
        ]
      }
    },
    {
      "type": "Feature",
      "properties": {
        "norad_id": 41833,
        "name": "FENGYUN 1C DEB",
        "group": "fengyun-1c-debris",
        "lat": -38.6985069284058,
        "lon": -129.12270716588358,
        "alt_km": 772.9861909474075,
        "timestamp": "2025-12-14T09:36:23.327337+00:00",
        "meta_object_name": "FENGYUN 1C DEB",
        "meta_object_id": "1999-025EYL",
        "meta_epoch": "2025-12-13T15:44:16.991808",
        "meta_mean_motion": 14.258215,
        "meta_eccentricity": 0.00544566,
        "meta_inclination": 98.748,
        "meta_ra_of_asc_node": 57.22,
        "meta_arg_of_pericenter": 220.6373,
        "meta_mean_anomaly": 139.0737,
        "meta_ephemeris_type": 0,
        "meta_classification_type": "U",
        "meta_norad_cat_id": 41833,
        "meta_element_set_no": 999,
        "meta_rev_at_epoch": 47377,
        "meta_bstar": 0.0021817699,
        "meta_mean_motion_dot": 5.228e-05,
        "meta_mean_motion_ddot": 0,
        "tle_line1": "1 41833U 99025EYL 25347.65575222  .00005228  00000+0  21818-2 0  9997",
        "tle_line2": "2 41833  98.7480  57.2200 0054456 220.6373 139.0737 14.25821500473776"
      },
      "geometry": {
        "type": "Point",
        "coordinates": [
          -129.12270716588358,
          -38.6985069284058
        ]
      }
    },
    {
      "type": "Feature",
      "properties": {
        "norad_id": 43213,
        "name": "FENGYUN 1C DEB",
        "group": "fengyun-1c-debris",
        "lat": 50.09883139165047,
        "lon": 42.19595834679203,
        "alt_km": 846.8273832422065,
        "timestamp": "2025-12-14T09:36:23.327347+00:00",
        "meta_object_name": "FENGYUN 1C DEB",
        "meta_object_id": "1999-025EYM",
        "meta_epoch": "2025-12-11T15:35:29.120640",
        "meta_mean_motion": 14.2384299,
        "meta_eccentricity": 0.00550482,
        "meta_inclination": 98.7346,
        "meta_ra_of_asc_node": 50.0589,
        "meta_arg_of_pericenter": 230.6376,
        "meta_mean_anomaly": 128.9918,
        "meta_ephemeris_type": 0,
        "meta_classification_type": "U",
        "meta_norad_cat_id": 43213,
        "meta_element_set_no": 999,
        "meta_rev_at_epoch": 40357,
        "meta_bstar": 0.0023267016,
        "meta_mean_motion_dot": 5.369e-05,
        "meta_mean_motion_ddot": 0,
        "tle_line1": "1 43213U 99025EYM 25345.64964260  .00005369  00000+0  23267-2 0  9998",
        "tle_line2": "2 43213  98.7346  50.0589 0055048 230.6376 128.9918 14.23842990403577"
      },
      "geometry": {
        "type": "Point",
        "coordinates": [
          42.19595834679203,
          50.09883139165047
        ]
      }
    },
    {
      "type": "Feature",
      "properties": {
        "norad_id": 43214,
        "name": "FENGYUN 1C DEB",
        "group": "fengyun-1c-debris",
        "lat": -21.082920257626533,
        "lon": 56.49954666352465,
        "alt_km": 834.3357376581716,
        "timestamp": "2025-12-14T09:36:23.327357+00:00",
        "meta_object_name": "FENGYUN 1C DEB",
        "meta_object_id": "1999-025EYN",
        "meta_epoch": "2025-12-13T03:21:20.810016",
        "meta_mean_motion": 14.24134999,
        "meta_eccentricity": 0.00554507,
        "meta_inclination": 98.736,
        "meta_ra_of_asc_node": 51.8485,
        "meta_arg_of_pericenter": 225.6786,
        "meta_mean_anomaly": 133.984,
        "meta_ephemeris_type": 0,
        "meta_classification_type": "U",
        "meta_norad_cat_id": 43214,
        "meta_element_set_no": 999,
        "meta_rev_at_epoch": 40409,
        "meta_bstar": 0.002296388,
        "meta_mean_motion_dot": 5.33e-05,
        "meta_mean_motion_ddot": 0,
        "tle_line1": "1 43214U 99025EYN 25347.13982419  .00005330  00000+0  22964-2 0  9992",
        "tle_line2": "2 43214  98.7360  51.8485 0055450 225.6786 133.9840 14.24134999404096"
      },
      "geometry": {
        "type": "Point",
        "coordinates": [
          56.49954666352465,
          -21.082920257626533
        ]
      }
    },
    {
      "type": "Feature",
      "properties": {
        "norad_id": 43358,
        "name": "FENGYUN 1C DEB",
        "group": "fengyun-1c-debris",
        "lat": -58.64738119111109,
        "lon": 122.72297057240782,
        "alt_km": 1161.4886604365975,
        "timestamp": "2025-12-14T09:36:23.327366+00:00",
        "meta_object_name": "FENGYUN 1C DEB",
        "meta_object_id": "1999-025EYP",
        "meta_epoch": "2025-12-13T07:02:41.145792",
        "meta_mean_motion": 13.4037307,
        "meta_eccentricity": 0.03677055,
        "meta_inclination": 98.6862,
        "meta_ra_of_asc_node": 107.2402,
        "meta_arg_of_pericenter": 201.2899,
        "meta_mean_anomaly": 157.2589,
        "meta_ephemeris_type": 0,
        "meta_classification_type": "U",
        "meta_norad_cat_id": 43358,
        "meta_element_set_no": 999,
        "meta_rev_at_epoch": 53738,
        "meta_bstar": 0.0035204309,
        "meta_mean_motion_dot": 2.829e-05,
        "meta_mean_motion_ddot": 0,
        "tle_line1": "1 43358U 99025EYP 25347.29353178  .00002829  00000+0  35204-2 0  9993",
        "tle_line2": "2 43358  98.6862 107.2402 0367705 201.2899 157.2589 13.40373070537380"
      },
      "geometry": {
        "type": "Point",
        "coordinates": [
          122.72297057240782,
          -58.64738119111109
        ]
      }
    }
  ]
}